[{"OBJECT_NAME":"STARLINK-31134","OBJECT_ID":"2023-203D","EPOCH":"2026-03-09T08:16:38.534016","MEAN_MOTION":15.27565704,"ECCENTRICITY":0.0001414,"INCLINATION":43.0027,"RA_OF_ASC_NODE":69.4663,"ARG_OF_PERICENTER":264.5032,"MEAN_ANOMALY":95.5658,"EPHEMERIS_TYPE":0,"CLASSIFICATION_TYPE":"U","NORAD_CAT_ID":58621,"ELEMENT_SET_NO":999,"REV_AT_EPOCH":12350,"BSTAR":0.0001021446,"MEAN_MOTION_DOT":2.548e-5,"MEAN_MOTION_DDOT":0},{"OBJECT_NAME":"HERMES-4","OBJECT_ID":"2025-052BP","EPOCH":"2026-03-09T22:05:58.629408","MEAN_MOTION":15.26796135,"ECCENTRICITY":0.00026523,"INCLINATION":97.4,"RA_OF_ASC_NODE":323.461,"ARG_OF_PERICENTER":154.9526,"MEAN_ANOMALY":205.1842,"EPHEMERIS_TYPE":0,"CLASSIFICATION_TYPE":"U","NORAD_CAT_ID":63833,"ELEMENT_SET_NO":999,"REV_AT_EPOCH":5478,"BSTAR":0.00081237216,"MEAN_MOTION_DOT":0.00021364,"MEAN_MOTION_DDOT":0}]
